{"type": "FeatureCollection", "features": [ {"type": "Feature", "properties": {"norad_id": 17070, "name": "POLAR BEAR", "group": "nnss", "lat": 5.713323334170904, "lon": -176.75655140213374, "alt_km": 973.7676406105738, "timestamp": "2025-12-26T22:28:06.052816+00:00", "meta": {"OBJECT_NAME": "POLAR BEAR", "OBJECT_ID": "1986-088A", "EPOCH": "2025-12-26T12:02:59.489088", "MEAN_MOTION": 13.7525362, "ECCENTRICITY": 0.0041266, "INCLINATION": 89.6169, "RA_OF_ASC_NODE": 183.2226, "ARG_OF_PERICENTER": 79.6962, "MEAN_ANOMALY": 298.6828, "EPHEMERIS_TYPE": 0, "CLASSIFICATION_TYPE": "U", "NORAD_CAT_ID": 17070, "ELEMENT_SET_NO": 999, "REV_AT_EPOCH": 96168, "BSTAR": 0.00010681, "MEAN_MOTION_DOT": 1.15e-06, "MEAN_MOTION_DDOT": 0}, "tle": {"line1": "1 17070U 86088A   25360.50207742  .00000115  00000+0  10681-3 0  9993", "line2": "2 17070  89.6169 183.2226 0041266  79.6962 298.6828 13.75253620961685"}}, "geometry": {"type": "Point", "coordinates": [-176.75655140213374, 5.713323334170904]}}, {"type": "Feature", "properties": {"norad_id": 18361, "name": "OSCAR 27", "group": "nnss", "lat": 25.37781403629662, "lon": -100.01970842161748, "alt_km": 1021.7124129713047, "timestamp": "2025-12-26T22:28:06.052826+00:00", "meta": {"OBJECT_NAME": "OSCAR 27", "OBJECT_ID": "1987-080A", "EPOCH": "2025-12-26T10:59:09.176640", "MEAN_MOTION": 13.44909552, "ECCENTRICITY": 0.01040736, "INCLINATION": 90.3736, "RA_OF_ASC_NODE": 79.7851, "ARG_OF_PERICENTER": 184.3557, "MEAN_ANOMALY": 175.6697, "EPHEMERIS_TYPE": 0, "CLASSIFICATION_TYPE": "U", "NORAD_CAT_ID": 18361, "ELEMENT_SET_NO": 999, "REV_AT_EPOCH": 87741, "BSTAR": 0.00017188841, "MEAN_MOTION_DOT": 1.13e-06, "MEAN_MOTION_DDOT": 0}, "tle": {"line1": "1 18361U 87080A   25360.45774510  .00000113  00000+0  17189-3 0  9994", "line2": "2 18361  90.3736  79.7851 0104073 184.3557 175.6697 13.44909552877414"}}, "geometry": {"type": "Point", "coordinates": [-100.01970842161748, 25.37781403629662]}}, {"type": "Feature", "properties": {"norad_id": 18362, "name": "OSCAR 29", "group": "nnss", "lat": 37.09895733514435, "lon": -99.45323636465184, "alt_km": 1054.2472146144482, "timestamp": "2025-12-26T22:28:06.052837+00:00", "meta": {"OBJECT_NAME": "OSCAR 29", "OBJECT_ID": "1987-080B", "EPOCH": "2025-12-26T11:05:26.932128", "MEAN_MOTION": 13.44450985, "ECCENTRICITY": 0.01048753, "INCLINATION": 90.3748, "RA_OF_ASC_NODE": 80.2454, "ARG_OF_PERICENTER": 207.4741, "MEAN_ANOMALY": 163.2863, "EPHEMERIS_TYPE": 0, "CLASSIFICATION_TYPE": "U", "NORAD_CAT_ID": 18362, "ELEMENT_SET_NO": 999, "REV_AT_EPOCH": 87694, "BSTAR": 0.0001514268, "MEAN_MOTION_DOT": 9.9e-07, "MEAN_MOTION_DDOT": 0}, "tle": {"line1": "1 18362U 87080B   25360.46211727  .00000099  00000+0  15143-3 0  9993", "line2": "2 18362  90.3748  80.2454 0104875 207.4741 163.2863 13.44450985876942"}}, "geometry": {"type": "Point", "coordinates": [-99.45323636465184, 37.09895733514435]}}, {"type": "Feature", "properties": {"norad_id": 19070, "name": "OSCAR 23", "group": "nnss", "lat": 30.710425776767504, "lon": -162.9775915098501, "alt_km": 1011.415958207891, "timestamp": "2025-12-26T22:28:06.052847+00:00", "meta": {"OBJECT_NAME": "OSCAR 23", "OBJECT_ID": "1988-033A", "EPOCH": "2025-12-26T15:06:18.736128", "MEAN_MOTION": 13.27789302, "ECCENTRICITY": 0.01905928, "INCLINATION": 90.3203, "RA_OF_ASC_NODE": 16.8225, "ARG_OF_PERICENTER": 141.4067, "MEAN_ANOMALY": 341.813, "EPHEMERIS_TYPE": 0, "CLASSIFICATION_TYPE": "U", "NORAD_CAT_ID": 19070, "ELEMENT_SET_NO": 999, "REV_AT_EPOCH": 82437, "BSTAR": 0.00012944345, "MEAN_MOTION_DOT": 7.4e-07, "MEAN_MOTION_DDOT": 0}, "tle": {"line1": "1 19070U 88033A   25360.62938352  .00000074  00000+0  12944-3 0  9996", "line2": "2 19070  90.3203  16.8225 0190592 141.4067 341.8130 13.27789302824375"}}, "geometry": {"type": "Point", "coordinates": [-162.9775915098501, 30.710425776767504]}}, {"type": "Feature", "properties": {"norad_id": 19071, "name": "OSCAR 32", "group": "nnss", "lat": -89.00890855583492, "lon": 178.0631866930177, "alt_km": 1272.649966202971, "timestamp": "2025-12-26T22:28:06.052858+00:00", "meta": {"OBJECT_NAME": "OSCAR 32", "OBJECT_ID": "1988-033B", "EPOCH": "2025-12-26T10:53:58.879680", "MEAN_MOTION": 13.27955937, "ECCENTRICITY": 0.01893107, "INCLINATION": 90.3209, "RA_OF_ASC_NODE": 16.9498, "ARG_OF_PERICENTER": 128.8267, "MEAN_ANOMALY": 355.8113, "EPHEMERIS_TYPE": 0, "CLASSIFICATION_TYPE": "U", "NORAD_CAT_ID": 19071, "ELEMENT_SET_NO": 999, "REV_AT_EPOCH": 82447, "BSTAR": 0.0001395573, "MEAN_MOTION_DOT": 7.9e-07, "MEAN_MOTION_DDOT": 0}, "tle": {"line1": "1 19071U 88033B   25360.45415370  .00000079  00000+0  13956-3 0  9997", "line2": "2 19071  90.3209  16.9498 0189310 128.8267 355.8113 13.27955937824478"}}, "geometry": {"type": "Point", "coordinates": [178.0631866930177, -89.00890855583492]}}, {"type": "Feature", "properties": {"norad_id": 19223, "name": "NOVA 2", "group": "nnss", "lat": -28.660431579262006, "lon": -101.73811815239324, "alt_km": 1193.258368304737, "timestamp": "2025-12-26T22:28:06.052868+00:00", "meta": {"OBJECT_NAME": "NOVA 2", "OBJECT_ID": "1988-052A", "EPOCH": "2025-12-26T16:48:25.235712", "MEAN_MOTION": 13.22937608, "ECCENTRICITY": 0.0029415, "INCLINATION": 89.9863, "RA_OF_ASC_NODE": 78.2547, "ARG_OF_PERICENTER": 338.0829, "MEAN_ANOMALY": 187.9469, "EPHEMERIS_TYPE": 0, "CLASSIFICATION_TYPE": "U", "NORAD_CAT_ID": 19223, "ELEMENT_SET_NO": 999, "REV_AT_EPOCH": 81132, "BSTAR": 0.00012528, "MEAN_MOTION_DOT": 6.1e-07, "MEAN_MOTION_DDOT": 0}, "tle": {"line1": "1 19223U 88052A   25360.70029208  .00000061  00000+0  12528-3 0  9991", "line2": "2 19223  89.9863  78.2547 0029415 338.0829 187.9469 13.22937608811329"}}, "geometry": {"type": "Point", "coordinates": [-101.73811815239324, -28.660431579262006]}}, {"type": "Feature", "properties": {"norad_id": 19419, "name": "OSCAR 25", "group": "nnss", "lat": -30.031277308597357, "lon": -159.729558380307, "alt_km": 1034.4519574362466, "timestamp": "2025-12-26T22:28:06.052878+00:00", "meta": {"OBJECT_NAME": "OSCAR 25", "OBJECT_ID": "1988-074A", "EPOCH": "2025-12-26T13:18:28.068192", "MEAN_MOTION": 13.42625822, "ECCENTRICITY": 0.0095317, "INCLINATION": 90.0336, "RA_OF_ASC_NODE": 20.2886, "ARG_OF_PERICENTER": 205.9306, "MEAN_ANOMALY": 320.1104, "EPHEMERIS_TYPE": 0, "CLASSIFICATION_TYPE": "U", "NORAD_CAT_ID": 19419, "ELEMENT_SET_NO": 999, "REV_AT_EPOCH": 82825, "BSTAR": 0.00014338, "MEAN_MOTION_DOT": 9.2e-07, "MEAN_MOTION_DDOT": 0}, "tle": {"line1": "1 19419U 88074A   25360.55449153  .00000092  00000+0  14338-3 0  9995", "line2": "2 19419  90.0336  20.2886 0095317 205.9306 320.1104 13.42625822828254"}}, "geometry": {"type": "Point", "coordinates": [-159.729558380307, -30.031277308597357]}}, {"type": "Feature", "properties": {"norad_id": 19420, "name": "OSCAR 31", "group": "nnss", "lat": 89.40029106680889, "lon": -155.971804735425, "alt_km": 1113.7050127709163, "timestamp": "2025-12-26T22:28:06.052888+00:00", "meta": {"OBJECT_NAME": "OSCAR 31", "OBJECT_ID": "1988-074B", "EPOCH": "2025-12-26T11:51:56.300832", "MEAN_MOTION": 13.42586778, "ECCENTRICITY": 0.0093716, "INCLINATION": 90.0354, "RA_OF_ASC_NODE": 20.6407, "ARG_OF_PERICENTER": 200.2518, "MEAN_ANOMALY": 277.3694, "EPHEMERIS_TYPE": 0, "CLASSIFICATION_TYPE": "U", "NORAD_CAT_ID": 19420, "ELEMENT_SET_NO": 999, "REV_AT_EPOCH": 82835, "BSTAR": 0.00010498, "MEAN_MOTION_DOT": 7e-07, "MEAN_MOTION_DDOT": 0}, "tle": {"line1": "1 19420U 88074B   25360.49440163  .00000070  00000+0  10498-3 0  9991", "line2": "2 19420  90.0354  20.6407 0093716 200.2518 277.3694 13.42586778828357"}}, "geometry": {"type": "Point", "coordinates": [-155.971804735425, 89.40029106680889]}}]}